{
  "links" : {
    "next" : "https://api.nasa.gov/neo/rest/v1/feed?start_date=1995-10-16&end_date=1995-10-16&detailed=true&api_key=t0TVs3DtDT2H8Oy2Zy8m2eVrNsAVKAexjcZXUckd",
    "prev" : "https://api.nasa.gov/neo/rest/v1/feed?start_date=1995-10-14&end_date=1995-10-14&detailed=true&api_key=t0TVs3DtDT2H8Oy2Zy8m2eVrNsAVKAexjcZXUckd",
    "self" : "https://api.nasa.gov/neo/rest/v1/feed?start_date=1995-10-15&end_date=1995-10-15&detailed=true&api_key=t0TVs3DtDT2H8Oy2Zy8m2eVrNsAVKAexjcZXUckd"
  },
  "element_count" : 4,
  "near_earth_objects" : {
    "1995-10-15" : [ {
      "links" : {
        "self" : "https://api.nasa.gov/neo/rest/v1/neo/3092146?api_key=t0TVs3DtDT2H8Oy2Zy8m2eVrNsAVKAexjcZXUckd"
      },
      "neo_reference_id" : "3092146",
      "name" : "(1996 FT1)",
      "nasa_jpl_url" : "http://ssd.jpl.nasa.gov/sbdb.cgi?sstr=3092146",
      "absolute_magnitude_h" : 24.4,
      "estimated_diameter" : {
        "kilometers" : {
          "estimated_diameter_min" : 0.0350392641,
          "estimated_diameter_max" : 0.0783501764
        },
        "meters" : {
          "estimated_diameter_min" : 35.0392641108,
          "estimated_diameter_max" : 78.3501764334
        },
        "miles" : {
          "estimated_diameter_min" : 0.0217723826,
          "estimated_diameter_max" : 0.0486845275
        },
        "feet" : {
          "estimated_diameter_min" : 114.9582192654,
          "estimated_diameter_max" : 257.0543928497
        }
      },
      "is_potentially_hazardous_asteroid" : false,
      "close_approach_data" : [ {
        "close_approach_date" : "1995-10-15",
        "epoch_date_close_approach" : 813740400000,
        "relative_velocity" : {
          "kilometers_per_second" : "4.5430541949",
          "kilometers_per_hour" : "16354.9951017875",
          "miles_per_hour" : "10162.3579286635"
        },
        "miss_distance" : {
          "astronomical" : "0.4222252793",
          "lunar" : "164.2456359863",
          "kilometers" : "63164000",
          "miles" : "39248292"
        },
        "orbiting_body" : "Earth"
      } ],
      "orbital_data" : {
        "orbit_id" : "13",
        "orbit_determination_date" : "2017-04-06 09:18:05",
        "orbit_uncertainty" : "8",
        "minimum_orbit_intersection" : ".0247658",
        "jupiter_tisserand_invariant" : "4.545",
        "epoch_osculation" : "2450164.5",
        "eccentricity" : ".398751214499961",
        "semi_major_axis" : "1.455118168066537",
        "inclination" : "2.698883026018024",
        "ascending_node_longitude" : "12.47108401797542",
        "orbital_period" : "641.1295905154959",
        "perihelion_distance" : ".8748880313090469",
        "perihelion_argument" : "93.69006032021539",
        "aphelion_distance" : "2.035348304824027",
        "perihelion_time" : "2450100.317116665243",
        "mean_anomaly" : "36.039263110496",
        "mean_motion" : ".5615089450333192",
        "equinox" : "J2000"
      }
    }, {
      "links" : {
        "self" : "https://api.nasa.gov/neo/rest/v1/neo/3471585?api_key=t0TVs3DtDT2H8Oy2Zy8m2eVrNsAVKAexjcZXUckd"
      },
      "neo_reference_id" : "3471585",
      "name" : "(2009 UC)",
      "nasa_jpl_url" : "http://ssd.jpl.nasa.gov/sbdb.cgi?sstr=3471585",
      "absolute_magnitude_h" : 26.6,
      "estimated_diameter" : {
        "kilometers" : {
          "estimated_diameter_min" : 0.0127219879,
          "estimated_diameter_max" : 0.0284472297
        },
        "meters" : {
          "estimated_diameter_min" : 12.7219878539,
          "estimated_diameter_max" : 28.4472296503
        },
        "miles" : {
          "estimated_diameter_min" : 0.0079050743,
          "estimated_diameter_max" : 0.0176762835
        },
        "feet" : {
          "estimated_diameter_min" : 41.7388066307,
          "estimated_diameter_max" : 93.330808926
        }
      },
      "is_potentially_hazardous_asteroid" : false,
      "close_approach_data" : [ {
        "close_approach_date" : "1995-10-15",
        "epoch_date_close_approach" : 813740400000,
        "relative_velocity" : {
          "kilometers_per_second" : "23.6998713743",
          "kilometers_per_hour" : "85319.5369474375",
          "miles_per_hour" : "53014.2422771453"
        },
        "miss_distance" : {
          "astronomical" : "0.466018362",
          "lunar" : "181.2811431885",
          "kilometers" : "69715352",
          "miles" : "43319112"
        },
        "orbiting_body" : "Earth"
      } ],
      "orbital_data" : {
        "orbit_id" : "8",
        "orbit_determination_date" : "2017-04-06 08:59:35",
        "orbit_uncertainty" : "7",
        "minimum_orbit_intersection" : ".0242782",
        "jupiter_tisserand_invariant" : "7.499",
        "epoch_osculation" : "2458000.5",
        "eccentricity" : ".3471995999621233",
        "semi_major_axis" : ".7598608696198276",
        "inclination" : "24.78037108285349",
        "ascending_node_longitude" : "22.38391211190036",
        "orbital_period" : "241.9354715022976",
        "perihelion_distance" : ".4960374796609523",
        "perihelion_argument" : "185.4172634757048",
        "aphelion_distance" : "1.023684259578703",
        "perihelion_time" : "2457910.788665057371",
        "mean_anomaly" : "133.4904732191777",
        "mean_motion" : "1.488000076072273",
        "equinox" : "J2000"
      }
    }, {
      "links" : {
        "self" : "https://api.nasa.gov/neo/rest/v1/neo/3610358?api_key=t0TVs3DtDT2H8Oy2Zy8m2eVrNsAVKAexjcZXUckd"
      },
      "neo_reference_id" : "3610358",
      "name" : "(2012 TK123)",
      "nasa_jpl_url" : "http://ssd.jpl.nasa.gov/sbdb.cgi?sstr=3610358",
      "absolute_magnitude_h" : 18.9,
      "estimated_diameter" : {
        "kilometers" : {
          "estimated_diameter_min" : 0.4411182,
          "estimated_diameter_max" : 0.9863702813
        },
        "meters" : {
          "estimated_diameter_min" : 441.1181999969,
          "estimated_diameter_max" : 986.3702813054
        },
        "miles" : {
          "estimated_diameter_min" : 0.2740980571,
          "estimated_diameter_max" : 0.6129018881
        },
        "feet" : {
          "estimated_diameter_min" : 1447.2382352778,
          "estimated_diameter_max" : 3236.1230737181
        }
      },
      "is_potentially_hazardous_asteroid" : false,
      "close_approach_data" : [ {
        "close_approach_date" : "1995-10-15",
        "epoch_date_close_approach" : 813740400000,
        "relative_velocity" : {
          "kilometers_per_second" : "34.718736792",
          "kilometers_per_hour" : "124987.452451079",
          "miles_per_hour" : "77662.3423299496"
        },
        "miss_distance" : {
          "astronomical" : "0.3798567255",
          "lunar" : "147.7642669678",
          "kilometers" : "56825760",
          "miles" : "35309888"
        },
        "orbiting_body" : "Earth"
      } ],
      "orbital_data" : {
        "orbit_id" : "22",
        "orbit_determination_date" : "2017-09-16 06:18:39",
        "orbit_uncertainty" : "0",
        "minimum_orbit_intersection" : ".0797107",
        "jupiter_tisserand_invariant" : "3.625",
        "epoch_osculation" : "2458000.5",
        "eccentricity" : ".6872155315752198",
        "semi_major_axis" : "1.814799732405519",
        "inclination" : "27.92413357540924",
        "ascending_node_longitude" : "30.87949107095691",
        "orbital_period" : "892.9794953469265",
        "perihelion_distance" : ".5676411695978938",
        "perihelion_argument" : "104.3815070963002",
        "aphelion_distance" : "3.061958295213145",
        "perihelion_time" : "2458089.413694502803",
        "mean_anomaly" : "324.154910400744",
        "mean_motion" : ".4031447551437207",
        "equinox" : "J2000"
      }
    }, {
      "links" : {
        "self" : "https://api.nasa.gov/neo/rest/v1/neo/3666785?api_key=t0TVs3DtDT2H8Oy2Zy8m2eVrNsAVKAexjcZXUckd"
      },
      "neo_reference_id" : "3666785",
      "name" : "(2014 FP47)",
      "nasa_jpl_url" : "http://ssd.jpl.nasa.gov/sbdb.cgi?sstr=3666785",
      "absolute_magnitude_h" : 22.3,
      "estimated_diameter" : {
        "kilometers" : {
          "estimated_diameter_min" : 0.0921626549,
          "estimated_diameter_max" : 0.2060819612
        },
        "meters" : {
          "estimated_diameter_min" : 92.1626548503,
          "estimated_diameter_max" : 206.0819612321
        },
        "miles" : {
          "estimated_diameter_min" : 0.057267201,
          "estimated_diameter_max" : 0.1280533543
        },
        "feet" : {
          "estimated_diameter_min" : 302.370924539,
          "estimated_diameter_max" : 676.1219416887
        }
      },
      "is_potentially_hazardous_asteroid" : false,
      "close_approach_data" : [ {
        "close_approach_date" : "1995-10-15",
        "epoch_date_close_approach" : 813740400000,
        "relative_velocity" : {
          "kilometers_per_second" : "12.9802265886",
          "kilometers_per_hour" : "46728.8157191285",
          "miles_per_hour" : "29035.468856144"
        },
        "miss_distance" : {
          "astronomical" : "0.1732524845",
          "lunar" : "67.3952102661",
          "kilometers" : "25918202",
          "miles" : "16104824"
        },
        "orbiting_body" : "Earth"
      } ],
      "orbital_data" : {
        "orbit_id" : "29",
        "orbit_determination_date" : "2017-04-06 08:41:50",
        "orbit_uncertainty" : "3",
        "minimum_orbit_intersection" : ".0259126",
        "jupiter_tisserand_invariant" : "5.372",
        "epoch_osculation" : "2458000.5",
        "eccentricity" : ".2597323195329087",
        "semi_major_axis" : "1.16651991571092",
        "inclination" : "5.035044225594919",
        "ascending_node_longitude" : "28.8520216092119",
        "orbital_period" : "460.1894557939667",
        "perihelion_distance" : ".8635369922219897",
        "perihelion_argument" : "271.6146744029957",
        "aphelion_distance" : "1.46950283919985",
        "perihelion_time" : "2457770.912607255688",
        "mean_anomaly" : "179.6031185576674",
        "mean_motion" : ".7822865028032653",
        "equinox" : "J2000"
      }
    } ]
  }
}